{
  "type": "FeatureCollection",
  "features": [
    {
      "type": "Feature",
      "properties": {
        "norad_id": 15362,
        "name": "NOVA 3",
        "group": "nnss",
        "lat": -63.92119921016706,
        "lon": -99.54542923245812,
        "alt_km": 1164.9013141912465,
        "timestamp": "2025-12-27T02:10:16.457977+00:00",
        "meta_object_name": "NOVA 3",
        "meta_object_id": "1984-110A",
        "meta_epoch": "2025-12-26T12:17:22.808256",
        "meta_mean_motion": 13.23046399,
        "meta_eccentricity": 0.0029843,
        "meta_inclination": 90.1217,
        "meta_ra_of_asc_node": 80.6966,
        "meta_arg_of_pericenter": 292.1662,
        "meta_mean_anomaly": 78.6503,
        "meta_ephemeris_type": 0,
        "meta_classification_type": "U",
        "meta_norad_cat_id": 15362,
        "meta_element_set_no": 999,
        "meta_rev_at_epoch": 98881,
        "meta_bstar": 0.00016272,
        "meta_mean_motion_dot": 7.7e-07,
        "meta_mean_motion_ddot": 0,
        "tle_line1": "1 15362U 84110A   25360.51206954  .00000077  00000+0  16272-3 0  9993",
        "tle_line2": "2 15362  90.1217  80.6966 0029843 292.1662  78.6503 13.23046399988811"
      },
      "geometry": {
        "type": "Point",
        "coordinates": [
          -99.54542923245812,
          -63.92119921016706
        ]
      }
    },
    {
      "type": "Feature",
      "properties": {
        "norad_id": 15935,
        "name": "OSCAR 30",
        "group": "nnss",
        "lat": -84.2219075391911,
        "lon": 101.71638126838646,
        "alt_km": 1207.9807236540046,
        "timestamp": "2025-12-27T02:10:16.457988+00:00",
        "meta_object_name": "OSCAR 30",
        "meta_object_id": "1985-066A",
        "meta_epoch": "2025-12-26T18:09:23.815296",
        "meta_mean_motion": 13.36080704,
        "meta_eccentricity": 0.0168744,
        "meta_inclination": 90.1653,
        "meta_ra_of_asc_node": 100.0762,
        "meta_arg_of_pericenter": 44.7156,
        "meta_mean_anomaly": 67.3239,
        "meta_ephemeris_type": 0,
        "meta_classification_type": "U",
        "meta_norad_cat_id": 15935,
        "meta_element_set_no": 999,
        "meta_rev_at_epoch": 96640,
        "meta_bstar": 0.00016878,
        "meta_mean_motion_dot": 1.03e-06,
        "meta_mean_motion_ddot": 0,
        "tle_line1": "1 15935U 85066A   25360.75652564  .00000103  00000+0  16878-3 0  9990",
        "tle_line2": "2 15935  90.1653 100.0762 0168744  44.7156  67.3239 13.36080704966409"
      },
      "geometry": {
        "type": "Point",
        "coordinates": [
          101.71638126838646,
          -84.2219075391911
        ]
      }
    },
    {
      "type": "Feature",
      "properties": {
        "norad_id": 15936,
        "name": "OSCAR 24",
        "group": "nnss",
        "lat": -16.587621395099767,
        "lon": 92.61270226648871,
        "alt_km": 1077.0356845533415,
        "timestamp": "2025-12-27T02:10:16.457998+00:00",
        "meta_object_name": "OSCAR 24",
        "meta_object_id": "1985-066B",
        "meta_epoch": "2025-12-26T19:39:06.784128",
        "meta_mean_motion": 13.35937892,
        "meta_eccentricity": 0.0169927,
        "meta_inclination": 90.1792,
        "meta_ra_of_asc_node": 92.5545,
        "meta_arg_of_pericenter": 50.9961,
        "meta_mean_anomaly": 68.6575,
        "meta_ephemeris_type": 0,
        "meta_classification_type": "U",
        "meta_norad_cat_id": 15936,
        "meta_element_set_no": 999,
        "meta_rev_at_epoch": 96831,
        "meta_bstar": 0.0001448,
        "meta_mean_motion_dot": 9e-07,
        "meta_mean_motion_ddot": 0,
        "tle_line1": "1 15936U 85066B   25360.81882852  .00000090  00000+0  14480-3 0  9995",
        "tle_line2": "2 15936  90.1792  92.5545 0169927  50.9961  68.6575 13.35937892968312"
      },
      "geometry": {
        "type": "Point",
        "coordinates": [
          92.61270226648871,
          -16.587621395099767
        ]
      }
    },
    {
      "type": "Feature",
      "properties": {
        "norad_id": 17070,
        "name": "POLAR BEAR",
        "group": "nnss",
        "lat": 49.378977287686766,
        "lon": -176.354202439972,
        "alt_km": 949.6316356201478,
        "timestamp": "2025-12-27T02:10:16.458009+00:00",
        "meta_object_name": "POLAR BEAR",
        "meta_object_id": "1986-088A",
        "meta_epoch": "2025-12-26T12:02:59.489088",
        "meta_mean_motion": 13.7525362,
        "meta_eccentricity": 0.0041266,
        "meta_inclination": 89.6169,
        "meta_ra_of_asc_node": 183.2226,
        "meta_arg_of_pericenter": 79.6962,
        "meta_mean_anomaly": 298.6828,
        "meta_ephemeris_type": 0,
        "meta_classification_type": "U",
        "meta_norad_cat_id": 17070,
        "meta_element_set_no": 999,
        "meta_rev_at_epoch": 96168,
        "meta_bstar": 0.00010681,
        "meta_mean_motion_dot": 1.15e-06,
        "meta_mean_motion_ddot": 0,
        "tle_line1": "1 17070U 86088A   25360.50207742  .00000115  00000+0  10681-3 0  9993",
        "tle_line2": "2 17070  89.6169 183.2226 0041266  79.6962 298.6828 13.75253620961685"
      },
      "geometry": {
        "type": "Point",
        "coordinates": [
          -176.354202439972,
          49.378977287686766
        ]
      }
    },
    {
      "type": "Feature",
      "properties": {
        "norad_id": 18361,
        "name": "OSCAR 27",
        "group": "nnss",
        "lat": -1.7489286783181153,
        "lon": -100.20269132540012,
        "alt_km": 1016.4772696529562,
        "timestamp": "2025-12-27T02:10:16.458019+00:00",
        "meta_object_name": "OSCAR 27",
        "meta_object_id": "1987-080A",
        "meta_epoch": "2025-12-26T10:59:09.175776",
        "meta_mean_motion": 13.44909552,
        "meta_eccentricity": 0.0104074,
        "meta_inclination": 90.3736,
        "meta_ra_of_asc_node": 79.7851,
        "meta_arg_of_pericenter": 184.3556,
        "meta_mean_anomaly": 175.6696,
        "meta_ephemeris_type": 0,
        "meta_classification_type": "U",
        "meta_norad_cat_id": 18361,
        "meta_element_set_no": 999,
        "meta_rev_at_epoch": 87741,
        "meta_bstar": 0.00017189,
        "meta_mean_motion_dot": 1.13e-06,
        "meta_mean_motion_ddot": 0,
        "tle_line1": "1 18361U 87080A   25360.45774509  .00000113  00000+0  17189-3 0  9992",
        "tle_line2": "2 18361  90.3736  79.7851 0104074 184.3556 175.6696 13.44909552877413"
      },
      "geometry": {
        "type": "Point",
        "coordinates": [
          -100.20269132540012,
          -1.7489286783181153
        ]
      }
    },
    {
      "type": "Feature",
      "properties": {
        "norad_id": 18362,
        "name": "OSCAR 29",
        "group": "nnss",
        "lat": 10.39835121892186,
        "lon": -99.66226414728894,
        "alt_km": 1030.7100118298276,
        "timestamp": "2025-12-27T02:10:16.458029+00:00",
        "meta_object_name": "OSCAR 29",
        "meta_object_id": "1987-080B",
        "meta_epoch": "2025-12-26T11:05:26.932128",
        "meta_mean_motion": 13.44450985,
        "meta_eccentricity": 0.0104875,
        "meta_inclination": 90.3748,
        "meta_ra_of_asc_node": 80.2454,
        "meta_arg_of_pericenter": 207.474,
        "meta_mean_anomaly": 163.2863,
        "meta_ephemeris_type": 0,
        "meta_classification_type": "U",
        "meta_norad_cat_id": 18362,
        "meta_element_set_no": 999,
        "meta_rev_at_epoch": 87694,
        "meta_bstar": 0.00015143,
        "meta_mean_motion_dot": 9.9e-07,
        "meta_mean_motion_ddot": 0,
        "tle_line1": "1 18362U 87080B   25360.46211727  .00000099  00000+0  15143-3 0  9993",
        "tle_line2": "2 18362  90.3748  80.2454 0104875 207.4740 163.2863 13.44450985876941"
      },
      "geometry": {
        "type": "Point",
        "coordinates": [
          -99.66226414728894,
          10.39835121892186
        ]
      }
    },
    {
      "type": "Feature",
      "properties": {
        "norad_id": 19070,
        "name": "OSCAR 23",
        "group": "nnss",
        "lat": 12.977397326018037,
        "lon": -163.08931025974874,
        "alt_km": 1027.4659385344012,
        "timestamp": "2025-12-27T02:10:16.458039+00:00",
        "meta_object_name": "OSCAR 23",
        "meta_object_id": "1988-033A",
        "meta_epoch": "2025-12-26T15:06:18.736128",
        "meta_mean_motion": 13.27789302,
        "meta_eccentricity": 0.0190593,
        "meta_inclination": 90.3203,
        "meta_ra_of_asc_node": 16.8225,
        "meta_arg_of_pericenter": 141.4067,
        "meta_mean_anomaly": 341.813,
        "meta_ephemeris_type": 0,
        "meta_classification_type": "U",
        "meta_norad_cat_id": 19070,
        "meta_element_set_no": 999,
        "meta_rev_at_epoch": 82437,
        "meta_bstar": 0.00012944,
        "meta_mean_motion_dot": 7.4e-07,
        "meta_mean_motion_ddot": 0,
        "tle_line1": "1 19070U 88033A   25360.62938352  .00000074  00000+0  12944-3 0  9996",
        "tle_line2": "2 19070  90.3203  16.8225 0190593 141.4067 341.8130 13.27789302824376"
      },
      "geometry": {
        "type": "Point",
        "coordinates": [
          -163.08931025974874,
          12.977397326018037
        ]
      }
    }
  ]
}